[
    [
        "GPS BIII-10 (PRN 13)",
        "1 68791U 26087A   26130.49926687  .00000013  00000+0  00000+0 0  9999",
        "2 68791  54.9663 209.2785 0004510 269.8688  74.3976  2.00570126    72"
    ]
]